start=new Date('2022-08-27T00:00:00.000Z').valueOf();
sats=[{"PERIOD":"95.592","ELEMENT_SET_NO":"999","TIME_SYSTEM":"UTC","MEAN_ELEMENT_THEORY":"SGP4","MEAN_ANOMALY":"278.0570","FILE":"3548620","DECAY_DATE":null,"SITE":"AFETR","OBJECT_TYPE":"PAYLOAD","ECCENTRICITY":"0.00014550","CENTER_NAME":"EARTH","APOAPSIS":"548.225","CLASSIFICATION_TYPE":"U","EPOCH":"2022-08-26T18:40:56.997408","REF_FRAME":"TEME","MEAN_MOTION":"15.06398674","ARG_OF_PERICENTER":"82.0584","COUNTRY_CODE":"US","TLE_LINE1":"1 45182U 20012E   22238.77843747  .00001815  00000-0  14069-3 0  9997","LAUNCH_DATE":"2020-02-17","BSTAR":"0.00014069000000","RCS_SIZE":"LARGE","PERIAPSIS":"546.210","REV_AT_EPOCH":"14039","OBJECT_ID":"2020-012E","TLE_LINE2":"2 45182  53.0538  61.7392 0001455  82.0584 278.0570 15.06398674140391","EPHEMERIS_TYPE":"0","RA_OF_ASC_NODE":"61.7392","MEAN_MOTION_DDOT":"0.0000000000000","GP_ID":"211074359","NORAD_CAT_ID":"45182","OBJECT_NAME":"STARLINK-1201","INCLINATION":"53.0538","SEMIMAJOR_AXIS":"6925.353","MEAN_MOTION_DOT":"0.00001815"},{"APOAPSIS":"548.082","CENTER_NAME":"EARTH","ECCENTRICITY":"0.00012540","OBJECT_TYPE":"PAYLOAD","MEAN_MOTION":"15.06400024","REF_FRAME":"TEME","EPOCH":"2022-08-26T20:40:21.679392","CLASSIFICATION_TYPE":"U","TIME_SYSTEM":"UTC","ELEMENT_SET_NO":"999","PERIOD":"95.592","FILE":"3548620","DECAY_DATE":null,"SITE":"AFETR","MEAN_ANOMALY":"277.3609","MEAN_ELEMENT_THEORY":"SGP4","GP_ID":"211074608","MEAN_MOTION_DDOT":"0.0000000000000","EPHEMERIS_TYPE":"0","RA_OF_ASC_NODE":"81.3823","TLE_LINE2":"2 45183  53.0555  81.3823 0001254  82.7522 277.3609 15.06400024140280","MEAN_MOTION_DOT":"-0.00000669","SEMIMAJOR_AXIS":"6925.348","OBJECT_NAME":"STARLINK-1202","INCLINATION":"53.0555","NORAD_CAT_ID":"45183","BSTAR":"-0.00002604600000","LAUNCH_DATE":"2020-02-17","COUNTRY_CODE":"US","TLE_LINE1":"1 45183U 20012F   22238.86136203 -.00000669  00000-0 -26046-4 0  9997","ARG_OF_PERICENTER":"82.7522","REV_AT_EPOCH":"14028","PERIAPSIS":"546.345","OBJECT_ID":"2020-012F","RCS_SIZE":"LARGE"},{"TIME_SYSTEM":"UTC","ELEMENT_SET_NO":"999","PERIOD":"95.592","FILE":"3548620","SITE":"AFETR","DECAY_DATE":null,"MEAN_ANOMALY":"269.2223","MEAN_ELEMENT_THEORY":"SGP4","APOAPSIS":"548.174","CENTER_NAME":"EARTH","ECCENTRICITY":"0.00013880","OBJECT_TYPE":"PAYLOAD","REF_FRAME":"TEME","MEAN_MOTION":"15.06400238","EPOCH":"2022-08-26T22:02:38.014656","CLASSIFICATION_TYPE":"U","BSTAR":"0.00002082400000","LAUNCH_DATE":"2020-02-17","COUNTRY_CODE":"US","TLE_LINE1":"1 45184U 20012G   22238.91849554  .00000029  00000-0  20824-4 0  9990","ARG_OF_PERICENTER":"90.8925","OBJECT_ID":"2020-012G","PERIAPSIS":"546.252","REV_AT_EPOCH":"13960","RCS_SIZE":"LARGE","GP_ID":"211075859","MEAN_MOTION_DDOT":"0.0000000000000","RA_OF_ASC_NODE":"61.1232","EPHEMERIS_TYPE":"0","TLE_LINE2":"2 45184  53.0555  61.1232 0001388  90.8925 269.2223 15.06400238139609","MEAN_MOTION_DOT":"0.00000029","SEMIMAJOR_AXIS":"6925.348","INCLINATION":"53.0555","OBJECT_NAME":"STARLINK-1205","NORAD_CAT_ID":"45184"},{"PERIAPSIS":"546.136","OBJECT_ID":"2020-012H","REV_AT_EPOCH":"14022","RCS_SIZE":"LARGE","BSTAR":"0.00020806000000","LAUNCH_DATE":"2020-02-17","TLE_LINE1":"1 45185U 20012H   22238.85399149  .00002819  00000-0  20806-3 0  9992","COUNTRY_CODE":"US","ARG_OF_PERICENTER":"89.1909","MEAN_MOTION_DOT":"0.00002819","SEMIMAJOR_AXIS":"6925.343","INCLINATION":"53.0555","OBJECT_NAME":"STARLINK-1216","NORAD_CAT_ID":"45185","GP_ID":"211075602","MEAN_MOTION_DDOT":"0.0000000000000","EPHEMERIS_TYPE":"0","RA_OF_ASC_NODE":"81.4104","TLE_LINE2":"2 45185  53.0555  81.4104 0001547  89.1909 270.9257 15.06401869140220","FILE":"3548620","SITE":"AFETR","DECAY_DATE":null,"MEAN_ANOMALY":"270.9257","MEAN_ELEMENT_THEORY":"SGP4","TIME_SYSTEM":"UTC","ELEMENT_SET_NO":"999","PERIOD":"95.592","MEAN_MOTION":"15.06401869","REF_FRAME":"TEME","EPOCH":"2022-08-26T20:29:44.864736","CLASSIFICATION_TYPE":"U","APOAPSIS":"548.279","CENTER_NAME":"EARTH","OBJECT_TYPE":"PAYLOAD","ECCENTRICITY":"0.00015470"},{"BSTAR":"0.00002582000000","LAUNCH_DATE":"2020-02-17","TLE_LINE1":"1 45186U 20012J   22238.86873733  .00000103  00000-0  25820-4 0  9996","COUNTRY_CODE":"US","ARG_OF_PERICENTER":"82.3197","OBJECT_ID":"2020-012J","PERIAPSIS":"545.998","REV_AT_EPOCH":"14022","RCS_SIZE":"LARGE","GP_ID":"211074859","MEAN_MOTION_DDOT":"0.0000000000000","EPHEMERIS_TYPE":"0","RA_OF_ASC_NODE":"81.3481","TLE_LINE2":"2 45186  53.0557  81.3481 0001767  82.3197 277.7992 15.06397415140220","MEAN_MOTION_DOT":"0.00000103","SEMIMAJOR_AXIS":"6925.356","INCLINATION":"53.0557","OBJECT_NAME":"STARLINK-1224","NORAD_CAT_ID":"45186","TIME_SYSTEM":"UTC","ELEMENT_SET_NO":"999","PERIOD":"95.592","DECAY_DATE":null,"FILE":"3548620","SITE":"AFETR","MEAN_ANOMALY":"277.7992","MEAN_ELEMENT_THEORY":"SGP4","APOAPSIS":"548.445","CENTER_NAME":"EARTH","ECCENTRICITY":"0.00017670","OBJECT_TYPE":"PAYLOAD","REF_FRAME":"TEME","MEAN_MOTION":"15.06397415","EPOCH":"2022-08-26T20:50:58.905312","CLASSIFICATION_TYPE":"U"},{"BSTAR":"0.00008549300000","LAUNCH_DATE":"2020-02-17","ARG_OF_PERICENTER":"78.1195","COUNTRY_CODE":"US","TLE_LINE1":"1 45187U 20012K   22238.67337589  .00000992  00000-0  85493-4 0  9998","RCS_SIZE":"LARGE","PERIAPSIS":"546.290","OBJECT_ID":"2020-012K","REV_AT_EPOCH":"14024","MEAN_MOTION_DDOT":"0.0000000000000","RA_OF_ASC_NODE":"82.2262","EPHEMERIS_TYPE":"0","GP_ID":"211075109","TLE_LINE2":"2 45187  53.0552  82.2262 0001337  78.1195 281.9944 15.06399165140247","INCLINATION":"53.0552","OBJECT_NAME":"STARLINK-1225","MEAN_MOTION_DOT":"0.00000992","SEMIMAJOR_AXIS":"6925.351","NORAD_CAT_ID":"45187","TIME_SYSTEM":"UTC","PERIOD":"95.592","ELEMENT_SET_NO":"999","FILE":"3548620","DECAY_DATE":null,"SITE":"AFETR","MEAN_ANOMALY":"281.9944","MEAN_ELEMENT_THEORY":"SGP4","CENTER_NAME":"EARTH","APOAPSIS":"548.142","OBJECT_TYPE":"PAYLOAD","ECCENTRICITY":"0.00013370","REF_FRAME":"TEME","MEAN_MOTION":"15.06399165","CLASSIFICATION_TYPE":"U","EPOCH":"2022-08-26T16:09:39.676896"},{"OBJECT_TYPE":"PAYLOAD","ECCENTRICITY":"0.00014570","APOAPSIS":"548.263","CENTER_NAME":"EARTH","EPOCH":"2022-08-26T20:03:13.667040","CLASSIFICATION_TYPE":"U","REF_FRAME":"TEME","MEAN_MOTION":"15.06386915","ELEMENT_SET_NO":"999","PERIOD":"95.593","TIME_SYSTEM":"UTC","MEAN_ELEMENT_THEORY":"SGP4","FILE":"3548620","SITE":"AFETR","DECAY_DATE":null,"MEAN_ANOMALY":"289.1860","TLE_LINE2":"2 45188  53.0549  41.4923 0001457  70.9287 289.1860 15.06386915140785","GP_ID":"211075359","MEAN_MOTION_DDOT":"0.0000000000000","RA_OF_ASC_NODE":"41.4923","EPHEMERIS_TYPE":"0","NORAD_CAT_ID":"45188","MEAN_MOTION_DOT":"0.00001989","SEMIMAJOR_AXIS":"6925.389","OBJECT_NAME":"STARLINK-1228","INCLINATION":"53.0549","COUNTRY_CODE":"US","TLE_LINE1":"1 45188U 20012L   22238.83557485  .00001989  00000-0  15246-3 0  9991","ARG_OF_PERICENTER":"70.9287","BSTAR":"0.00015246000000","LAUNCH_DATE":"2020-02-17","OBJECT_ID":"2020-012L","PERIAPSIS":"546.245","REV_AT_EPOCH":"14078","RCS_SIZE":"LARGE"},{"COUNTRY_CODE":"US","TLE_LINE1":"1 45189U 20012M   22238.67708242 -.00000381  00000-0 -66480-5 0  9998","ARG_OF_PERICENTER":"90.0140","LAUNCH_DATE":"2020-02-17","BSTAR":"-0.00000664800000","PERIAPSIS":"546.107","REV_AT_EPOCH":"13747","OBJECT_ID":"2020-012M","RCS_SIZE":"LARGE","TLE_LINE2":"2 45189  53.0548  82.2130 0001654  90.0140 270.1038 15.06387405137472","GP_ID":"211076103","EPHEMERIS_TYPE":"0","RA_OF_ASC_NODE":"82.2130","MEAN_MOTION_DDOT":"0.0000000000000","NORAD_CAT_ID":"45189","SEMIMAJOR_AXIS":"6925.387","MEAN_MOTION_DOT":"-0.00000381","OBJECT_NAME":"STARLINK-1230","INCLINATION":"53.0548","ELEMENT_SET_NO":"999","PERIOD":"95.593","TIME_SYSTEM":"UTC","MEAN_ELEMENT_THEORY":"SGP4","MEAN_ANOMALY":"270.1038","SITE":"AFETR","FILE":"3548620","DECAY_DATE":null,"ECCENTRICITY":"0.00016540","OBJECT_TYPE":"PAYLOAD","APOAPSIS":"548.398","CENTER_NAME":"EARTH","EPOCH":"2022-08-26T16:14:59.921088","CLASSIFICATION_TYPE":"U","REF_FRAME":"TEME","MEAN_MOTION":"15.06387405"},{"OBJECT_ID":"2020-012N","PERIAPSIS":"546.272","REV_AT_EPOCH":"14073","RCS_SIZE":"LARGE","TLE_LINE1":"1 45190U 20012N   22238.82818243  .00001672  00000-0  13113-3 0  9995","COUNTRY_CODE":"US","ARG_OF_PERICENTER":"76.7854","LAUNCH_DATE":"2020-02-17","BSTAR":"0.00013113000000","NORAD_CAT_ID":"45190","SEMIMAJOR_AXIS":"6925.342","MEAN_MOTION_DOT":"0.00001672","OBJECT_NAME":"STARLINK-1234","INCLINATION":"53.0562","TLE_LINE2":"2 45190  53.0562  41.5361 0001349  76.7854 283.3285 15.06402256140733","GP_ID":"211074360","RA_OF_ASC_NODE":"41.5361","EPHEMERIS_TYPE":"0","MEAN_MOTION_DDOT":"0.0000000000000","MEAN_ELEMENT_THEORY":"SGP4","MEAN_ANOMALY":"283.3285","FILE":"3548620","DECAY_DATE":null,"SITE":"AFETR","ELEMENT_SET_NO":"999","PERIOD":"95.592","TIME_SYSTEM":"UTC","EPOCH":"2022-08-26T19:52:34.961952","CLASSIFICATION_TYPE":"U","MEAN_MOTION":"15.06402256","REF_FRAME":"TEME","OBJECT_TYPE":"PAYLOAD","ECCENTRICITY":"0.00013490","APOAPSIS":"548.141","CENTER_NAME":"EARTH"},{"MEAN_ANOMALY":"273.4346","FILE":"3548620","DECAY_DATE":null,"SITE":"AFETR","MEAN_ELEMENT_THEORY":"SGP4","TIME_SYSTEM":"UTC","ELEMENT_SET_NO":"999","PERIOD":"95.592","MEAN_MOTION":"15.06399884","REF_FRAME":"TEME","EPOCH":"2022-08-26T16:25:35.514912","CLASSIFICATION_TYPE":"U","APOAPSIS":"548.279","CENTER_NAME":"EARTH","OBJECT_TYPE":"PAYLOAD","ECCENTRICITY":"0.00015380","PERIAPSIS":"546.149","REV_AT_EPOCH":"13746","OBJECT_ID":"2020-012P","RCS_SIZE":"LARGE","LAUNCH_DATE":"2020-02-17","BSTAR":"0.00007643000000","TLE_LINE1":"1 45191U 20012P   22238.68443883  .00000857  00000-0  76430-4 0  9990","COUNTRY_CODE":"US","ARG_OF_PERICENTER":"86.6818","SEMIMAJOR_AXIS":"6925.349","MEAN_MOTION_DOT":"0.00000857","OBJECT_NAME":"STARLINK-1236","INCLINATION":"53.0546","NORAD_CAT_ID":"45191","GP_ID":"211074609","RA_OF_ASC_NODE":"82.1718","EPHEMERIS_TYPE":"0","MEAN_MOTION_DDOT":"0.0000000000000","TLE_LINE2":"2 45191  53.0546  82.1718 0001538  86.6818 273.4346 15.06399884137469"}];
